start=new Date('2022-05-23T00:00:00.000Z').valueOf();
sats=[{"MEAN_MOTION":"15.06398138","TIME_SYSTEM":"UTC","NORAD_CAT_ID":"47155","ELEMENT_SET_NO":"999","SEMIMAJOR_AXIS":"6925.354","MEAN_ANOMALY":"297.3312","OBJECT_NAME":"STARLINK-1869","DECAY_DATE":null,"APOAPSIS":"548.516","BSTAR":"0.00034615000000","OBJECT_ID":"2020-088AK","CENTER_NAME":"EARTH","GP_ID":"204251578","TLE_LINE1":"1 47155U 20088AK  22142.49938729  .00004878  00000-0  34615-3 0  9991","SITE":"AFETR","MEAN_MOTION_DDOT":"0.0000000000000","PERIOD":"95.592","ECCENTRICITY":"0.00018730","OBJECT_TYPE":"PAYLOAD","LAUNCH_DATE":"2020-11-25","MEAN_ELEMENT_THEORY":"SGP4","ARG_OF_PERICENTER":"62.7868","INCLINATION":"53.0573","EPOCH":"2022-05-22T11:59:07.061856","CLASSIFICATION_TYPE":"U","REF_FRAME":"TEME","PERIAPSIS":"545.922","TLE_LINE2":"2 47155  53.0573  58.9594 0001873  62.7868 297.3312 15.06398138 82868","COUNTRY_CODE":"US","REV_AT_EPOCH":"8286","FILE":"3458962","MEAN_MOTION_DOT":"0.00004878","RCS_SIZE":"LARGE","EPHEMERIS_TYPE":"0","RA_OF_ASC_NODE":"58.9594"},{"REF_FRAME":"TEME","PERIAPSIS":"546.038","CLASSIFICATION_TYPE":"U","EPHEMERIS_TYPE":"0","RA_OF_ASC_NODE":"49.0743","COUNTRY_CODE":"US","TLE_LINE2":"2 47157  53.0557  49.0743 0001700  70.9223 289.1950 15.06399568 83006","FILE":"3458964","REV_AT_EPOCH":"8300","MEAN_MOTION_DOT":"0.00004056","RCS_SIZE":"LARGE","MEAN_ELEMENT_THEORY":"SGP4","PERIOD":"95.592","ECCENTRICITY":"0.00017000","MEAN_MOTION_DDOT":"0.0000000000000","OBJECT_TYPE":"PAYLOAD","LAUNCH_DATE":"2020-11-25","INCLINATION":"53.0557","EPOCH":"2022-05-22T11:17:58.844544","ARG_OF_PERICENTER":"70.9223","CENTER_NAME":"EARTH","GP_ID":"204251605","OBJECT_ID":"2020-088AM","TLE_LINE1":"1 47157U 20088AM  22142.47081996  .00004056  00000-0  29102-3 0  9999","SITE":"AFETR","TIME_SYSTEM":"UTC","NORAD_CAT_ID":"47157","MEAN_MOTION":"15.06399568","MEAN_ANOMALY":"289.1950","OBJECT_NAME":"STARLINK-1871","APOAPSIS":"548.392","DECAY_DATE":null,"BSTAR":"0.00029102000000","ELEMENT_SET_NO":"999","SEMIMAJOR_AXIS":"6925.350"},{"MEAN_MOTION_DOT":"0.00001088","FILE":"3459268","REV_AT_EPOCH":"8295","RCS_SIZE":"LARGE","COUNTRY_CODE":"US","TLE_LINE2":"2 47158  53.0568  37.1901 0001697  63.9980 296.1184 15.06394407 82957","RA_OF_ASC_NODE":"37.1901","EPHEMERIS_TYPE":"0","CLASSIFICATION_TYPE":"U","REF_FRAME":"TEME","PERIAPSIS":"546.055","ARG_OF_PERICENTER":"63.9980","INCLINATION":"53.0568","EPOCH":"2022-05-22T21:24:23.811264","LAUNCH_DATE":"2020-11-25","MEAN_MOTION_DDOT":"0.0000000000000","PERIOD":"95.592","ECCENTRICITY":"0.00016970","OBJECT_TYPE":"PAYLOAD","MEAN_ELEMENT_THEORY":"SGP4","SITE":"AFETR","TLE_LINE1":"1 47158U 20088AN  22142.89194226  .00001088  00000-0  91940-4 0  9999","OBJECT_ID":"2020-088AN","GP_ID":"204280421","CENTER_NAME":"EARTH","ELEMENT_SET_NO":"999","SEMIMAJOR_AXIS":"6925.366","OBJECT_NAME":"STARLINK-1873","MEAN_ANOMALY":"296.1184","APOAPSIS":"548.406","DECAY_DATE":null,"BSTAR":"0.00009194000000","MEAN_MOTION":"15.06394407","NORAD_CAT_ID":"47158","TIME_SYSTEM":"UTC"},{"MEAN_MOTION":"15.92817786","TIME_SYSTEM":"UTC","NORAD_CAT_ID":"47159","ELEMENT_SET_NO":"999","SEMIMAJOR_AXIS":"6672.539","OBJECT_NAME":"STARLINK-1874","MEAN_ANOMALY":"183.5143","APOAPSIS":"295.243","DECAY_DATE":null,"BSTAR":"-0.00028150000000","OBJECT_ID":"2020-088AP","CENTER_NAME":"EARTH","GP_ID":"204280671","TLE_LINE1":"1 47159U 20088AP  22142.86808149 -.00103462  14547-4 -28150-3 0  9991","SITE":"AFETR","PERIOD":"90.406","MEAN_MOTION_DDOT":"0.0000145470000","ECCENTRICITY":"0.00012580","OBJECT_TYPE":"PAYLOAD","LAUNCH_DATE":"2020-11-25","MEAN_ELEMENT_THEORY":"SGP4","ARG_OF_PERICENTER":"176.5892","INCLINATION":"53.0372","EPOCH":"2022-05-22T20:50:02.240736","CLASSIFICATION_TYPE":"U","REF_FRAME":"TEME","PERIAPSIS":"293.564","TLE_LINE2":"2 47159  53.0372 324.8648 0001258 176.5892 183.5143 15.92817786 83962","COUNTRY_CODE":"US","FILE":"3459268","MEAN_MOTION_DOT":"-0.00103462","REV_AT_EPOCH":"8396","RCS_SIZE":"LARGE","EPHEMERIS_TYPE":"0","RA_OF_ASC_NODE":"324.8648"},{"TIME_SYSTEM":"UTC","NORAD_CAT_ID":"47161","MEAN_MOTION":"15.06391569","OBJECT_NAME":"STARLINK-1876","MEAN_ANOMALY":"311.1351","DECAY_DATE":null,"BSTAR":"0.00003840300000","APOAPSIS":"548.434","ELEMENT_SET_NO":"999","SEMIMAJOR_AXIS":"6925.374","CENTER_NAME":"EARTH","GP_ID":"204281419","OBJECT_ID":"2020-088AR","TLE_LINE1":"1 47161U 20088AR  22142.92511714  .00000290  00000-0  38403-4 0  9991","SITE":"AFETR","MEAN_ELEMENT_THEORY":"SGP4","PERIOD":"95.593","MEAN_MOTION_DDOT":"0.0000000000000","ECCENTRICITY":"0.00017250","OBJECT_TYPE":"PAYLOAD","LAUNCH_DATE":"2020-11-25","EPOCH":"2022-05-22T22:12:10.120896","INCLINATION":"53.0563","ARG_OF_PERICENTER":"48.9787","PERIAPSIS":"546.045","REF_FRAME":"TEME","CLASSIFICATION_TYPE":"U","EPHEMERIS_TYPE":"0","RA_OF_ASC_NODE":"37.0411","TLE_LINE2":"2 47161  53.0563  37.0411 0001725  48.9787 311.1351 15.06391569 82962","COUNTRY_CODE":"US","REV_AT_EPOCH":"8296","FILE":"3459268","MEAN_MOTION_DOT":"0.00000290","RCS_SIZE":"LARGE"},{"OBJECT_ID":"2020-088AS","GP_ID":"204281665","CENTER_NAME":"EARTH","SITE":"AFETR","TLE_LINE1":"1 47162U 20088AS  22142.92049762  .00002041  00000-0  15586-3 0  9993","MEAN_MOTION":"15.06400989","NORAD_CAT_ID":"47162","TIME_SYSTEM":"UTC","ELEMENT_SET_NO":"999","SEMIMAJOR_AXIS":"6925.346","OBJECT_NAME":"STARLINK-1877","MEAN_ANOMALY":"312.4278","APOAPSIS":"548.340","DECAY_DATE":null,"BSTAR":"0.00015586000000","CLASSIFICATION_TYPE":"U","PERIAPSIS":"546.081","REF_FRAME":"TEME","FILE":"3459268","REV_AT_EPOCH":"8282","MEAN_MOTION_DOT":"0.00002041","RCS_SIZE":"LARGE","TLE_LINE2":"2 47162  53.0563  47.0705 0001631  47.6849 312.4278 15.06400989 82825","COUNTRY_CODE":"US","RA_OF_ASC_NODE":"47.0705","EPHEMERIS_TYPE":"0","LAUNCH_DATE":"2020-11-25","PERIOD":"95.592","MEAN_MOTION_DDOT":"0.0000000000000","ECCENTRICITY":"0.00016310","OBJECT_TYPE":"PAYLOAD","MEAN_ELEMENT_THEORY":"SGP4","ARG_OF_PERICENTER":"47.6849","EPOCH":"2022-05-22T22:05:30.994368","INCLINATION":"53.0563"},{"PERIAPSIS":"546.078","REF_FRAME":"TEME","CLASSIFICATION_TYPE":"U","RA_OF_ASC_NODE":"58.9978","EPHEMERIS_TYPE":"0","RCS_SIZE":"LARGE","FILE":"3458968","MEAN_MOTION_DOT":"0.00001163","REV_AT_EPOCH":"8286","TLE_LINE2":"2 47163  53.0570  58.9978 0001619  61.8197 298.2955 15.06404532 82862","COUNTRY_CODE":"US","MEAN_ELEMENT_THEORY":"SGP4","LAUNCH_DATE":"2020-11-25","OBJECT_TYPE":"PAYLOAD","PERIOD":"95.592","ECCENTRICITY":"0.00016190","MEAN_MOTION_DDOT":"0.0000000000000","INCLINATION":"53.0570","EPOCH":"2022-05-22T11:43:10.887744","ARG_OF_PERICENTER":"61.8197","GP_ID":"204251676","CENTER_NAME":"EARTH","OBJECT_ID":"2020-088AT","SITE":"AFETR","TLE_LINE1":"1 47163U 20088AT  22142.48832046  .00001163  00000-0  96924-4 0  9990","NORAD_CAT_ID":"47163","TIME_SYSTEM":"UTC","MEAN_MOTION":"15.06404532","BSTAR":"0.00009692400000","DECAY_DATE":null,"APOAPSIS":"548.321","MEAN_ANOMALY":"298.2955","OBJECT_NAME":"STARLINK-1878","SEMIMAJOR_AXIS":"6925.335","ELEMENT_SET_NO":"999"},{"TLE_LINE1":"1 47164U 20088AU  22142.87440881  .00005079  00000-0  35937-3 0  9992","SITE":"AFETR","OBJECT_ID":"2020-088AU","CENTER_NAME":"EARTH","GP_ID":"204280172","ELEMENT_SET_NO":"999","SEMIMAJOR_AXIS":"6925.275","OBJECT_NAME":"STARLINK-1879","MEAN_ANOMALY":"307.9057","DECAY_DATE":null,"APOAPSIS":"548.263","BSTAR":"0.00035937000000","MEAN_MOTION":"15.06423981","TIME_SYSTEM":"UTC","NORAD_CAT_ID":"47164","COUNTRY_CODE":"US","TLE_LINE2":"2 47164  53.0571  27.2811 0001621  52.2079 307.9057 15.06423981 83091","FILE":"3459268","REV_AT_EPOCH":"8309","MEAN_MOTION_DOT":"0.00005079","RCS_SIZE":"LARGE","EPHEMERIS_TYPE":"0","RA_OF_ASC_NODE":"27.2811","CLASSIFICATION_TYPE":"U","PERIAPSIS":"546.017","REF_FRAME":"TEME","ARG_OF_PERICENTER":"52.2079","EPOCH":"2022-05-22T20:59:08.921184","INCLINATION":"53.0571","PERIOD":"95.591","ECCENTRICITY":"0.00016210","MEAN_MOTION_DDOT":"0.0000000000000","OBJECT_TYPE":"PAYLOAD","LAUNCH_DATE":"2020-11-25","MEAN_ELEMENT_THEORY":"SGP4"},{"GP_ID":"204280921","CENTER_NAME":"EARTH","OBJECT_ID":"2020-088AV","SITE":"AFETR","TLE_LINE1":"1 47165U 20088AV  22142.87995017 -.00001602  00000-0 -88643-4 0  9992","NORAD_CAT_ID":"47165","TIME_SYSTEM":"UTC","MEAN_MOTION":"15.06411392","OBJECT_NAME":"STARLINK-1880","MEAN_ANOMALY":"299.1176","DECAY_DATE":null,"APOAPSIS":"548.537","BSTAR":"-0.00008864300000","ELEMENT_SET_NO":"999","SEMIMAJOR_AXIS":"6925.314","REF_FRAME":"TEME","PERIAPSIS":"545.821","CLASSIFICATION_TYPE":"U","RA_OF_ASC_NODE":"47.2416","EPHEMERIS_TYPE":"0","MEAN_MOTION_DOT":"-0.00001602","FILE":"3459268","REV_AT_EPOCH":"8281","RCS_SIZE":"LARGE","TLE_LINE2":"2 47165  53.0574  47.2416 0001961  61.0009 299.1176 15.06411392 82812","COUNTRY_CODE":"US","MEAN_ELEMENT_THEORY":"SGP4","LAUNCH_DATE":"2020-11-25","PERIOD":"95.591","ECCENTRICITY":"0.00019610","MEAN_MOTION_DDOT":"0.0000000000000","OBJECT_TYPE":"PAYLOAD","EPOCH":"2022-05-22T21:07:07.694688","INCLINATION":"53.0574","ARG_OF_PERICENTER":"61.0009"},{"SEMIMAJOR_AXIS":"6805.405","ELEMENT_SET_NO":"999","DECAY_DATE":null,"BSTAR":"0.00080028000000","APOAPSIS":"429.497","MEAN_ANOMALY":"203.9765","OBJECT_NAME":"STARLINK-1881","MEAN_MOTION":"15.46399904","NORAD_CAT_ID":"47166","TIME_SYSTEM":"UTC","SITE":"AFETR","TLE_LINE1":"1 47166U 20088AW  22142.82702467  .00040002  00000-0  80028-3 0  9996","OBJECT_ID":"2020-088AW","GP_ID":"204281167","CENTER_NAME":"EARTH","ARG_OF_PERICENTER":"156.1393","EPOCH":"2022-05-22T19:50:54.931488","INCLINATION":"53.0511","LAUNCH_DATE":"2020-11-25","OBJECT_TYPE":"PAYLOAD","ECCENTRICITY":"0.00032720","PERIOD":"93.120","MEAN_MOTION_DDOT":"0.0000000000000","MEAN_ELEMENT_THEORY":"SGP4","RCS_SIZE":"LARGE","MEAN_MOTION_DOT":"0.00040002","FILE":"3459268","REV_AT_EPOCH":"8396","TLE_LINE2":"2 47166  53.0511 325.8817 0003272 156.1393 203.9765 15.46399904 83965","COUNTRY_CODE":"US","RA_OF_ASC_NODE":"325.8817","EPHEMERIS_TYPE":"0","CLASSIFICATION_TYPE":"U","REF_FRAME":"TEME","PERIAPSIS":"425.043"}];
